NORAD_CAT_ID,OBJECT_NAME,OBJECT_TYPE,EPOCH,MEAN_MOTION,ECCENTRICITY,INCLINATION,RA_OF_ASC_NODE,ARG_OF_PERICENTER,MEAN_ANOMALY,BSTAR,MEAN_MOTION_DOT,MEAN_MOTION_DDOT,TLE_LINE0,TLE_LINE1,TLE_LINE2,SEMIMAJOR_AXIS,PERIOD,APOGEE,PERIGEE,DECAYED
53641.0,STARLINK-4588,PAYLOAD,2022-11-05 22:00:01,15.50873006,0.0001436,53.2163,303.3248,62.5502,241.2088,-0.017853,-0.00961869,0.0,0 STARLINK-4588,1 53641U 22104BF  22309.91668981 -.00961869  00000-0 -17853-1 0  9998,2 53641  53.2163 303.3248 0001436  62.5502 241.2088 15.50873006 11000,6792.313,92.851,415.153,413.203,0.0
53641.0,STARLINK-4588,PAYLOAD,2022-11-06 06:00:00,15.50103356,0.0001347,53.2166,301.7315,80.6989,284.6656,-0.0058953,-0.00324074,0.0,0 STARLINK-4588,1 53641U 22104BF  22310.25001157 -.00324074  00000-0 -58953-2 0  9991,2 53641  53.2166 301.7315 0001347  80.6989 284.6656 15.50103356 11052,6794.561,92.897,417.341,415.511,0.0
53641.0,STARLINK-4588,PAYLOAD,2022-11-06 14:00:01,15.49826666,0.0002207,53.213,300.1416,66.1386,0.09,0.0016167,0.00092205,0.0,0 STARLINK-4588,1 53641U 22104BF  22310.58334491  .00092205  00000-0  16167-2 0  9994,2 53641  53.2130 300.1416 0002207  66.1386   0.0900 15.49826666 11117,6795.37,92.914,418.734,415.735,0.0
53641.0,STARLINK-4588,PAYLOAD,2022-11-07 06:00:00,15.49917822,0.0002211,53.213,296.9554,67.0116,121.0414,0.00014387,7.731e-05,0.0,0 STARLINK-4588,1 53641U 22104BF  22311.25001157  .00007731  00000-0  14387-3 0  9992,2 53641  53.2130 296.9554 0002211  67.0116 121.0414 15.49917822 11218,6795.103,92.908,418.471,415.466,0.0
53641.0,STARLINK-4588,PAYLOAD,2022-11-07 22:00:00,15.49946611,0.000205,53.2128,293.7669,74.7446,235.246,0.00051582,0.00028997,0.0,0 STARLINK-4588,1 53641U 22104BF  22311.91667824  .00028997  00000-0  51582-3 0  9999,2 53641  53.2128 293.7669 0002050  74.7446 235.2460 15.49946611  1305,6795.019,92.906,418.277,415.491,0.0
53641.0,STARLINK-4588,PAYLOAD,2022-11-08 14:00:01,15.49931258,0.0001639,53.2127,290.5812,66.0689,5.9335,-0.001638,-0.00092481,0.0,0 STARLINK-4588,1 53641U 22104BF  22312.58334491 -.00092481  00000-0 -16380-2 0  9991,2 53641  53.2127 290.5812 0001639  66.0689   5.9335 15.49931258 11422,6795.064,92.907,418.043,415.815,0.0
53641.0,STARLINK-4588,PAYLOAD,2022-11-08 22:00:00,15.49872568,0.00015,53.2131,288.9867,72.7577,60.1693,0.00070234,0.00039595,0.0,0 STARLINK-4588,1 53641U 22104BF  22312.91667824  .00039595  00000-0  70234-3 0  9991,2 53641  53.2131 288.9867 0001500  72.7577  60.1693 15.49872568 11478,6795.236,92.911,418.12,416.081,0.0
53641.0,STARLINK-4588,PAYLOAD,2022-11-09 06:00:00,15.49881517,0.0001504,53.2132,287.3954,61.3411,132.5081,-0.00068946,-0.00039381,0.0,0 STARLINK-4588,1 53641U 22104BF  22313.25001157 -.00039381  00000-0 -68946-3 0  9992,2 53641  53.2132 287.3954 0001504  61.3411 132.5081 15.49881517 11529,6795.209,92.91,418.096,416.052,0.0
53641.0,STARLINK-4588,PAYLOAD,2022-11-09 14:00:01,15.49877701,0.0001375999999999,53.2134,285.8015,60.8605,193.8737,-0.00024101,-0.00014102,0.0,0 STARLINK-4588,1 53641U 22104BF  22313.58334491 -.00014102  00000-0 -24101-3 0  9997,2 53641  53.2134 285.8015 0001376  60.8605 193.8737 15.49877701  1301,6795.221,92.911,418.021,416.15,0.0
53641.0,STARLINK-4588,PAYLOAD,2022-11-09 22:00:01,15.49932847,0.0001248,53.2149,284.2056,71.7508,243.9836,-0.0022148,-0.00124387,0.0,0 STARLINK-4588,1 53641U 22104BF  22313.91668981 -.00124387  00000-0 -22148-2 0  9993,2 53641  53.2149 284.2056 0001248  71.7508 243.9836 15.49932847 11622,6795.059,92.907,417.772,416.076,0.0
53641.0,STARLINK-4588,PAYLOAD,2022-11-10 06:00:00,15.49751708,0.0001281,53.2164,282.6140000000001,73.4975,303.1368,-0.010335,-0.00545324,0.0,0 STARLINK-4588,1 53641U 22104BF  22314.25001157 -.00545324  00000-0 -10335-1 0  9999,2 53641  53.2164 282.6140 0001281  73.4975 303.1368 15.49751708 11678,6795.589,92.918,418.324,416.583,0.0
53641.0,STARLINK-4588,PAYLOAD,2022-11-10 14:00:01,15.49359778,0.000137,53.2172,281.0205,42.3112,34.8915,-0.019266,-0.0098163,0.0,0 STARLINK-4588,1 53641U 22104BF  22314.58334491 -.00981630  00000-0 -19266-1 0  9991,2 53641  53.2172 281.0205 0001370  42.3112  34.8915 15.49359778  1305,6796.735,92.942,419.531,417.669,0.0
53641.0,STARLINK-4588,PAYLOAD,2022-11-10 16:00:00,15.49270225,0.0001324,53.2174,280.6218,62.0413,120.1773,-0.022735,-0.01154708,0.0,0 STARLINK-4588,1 53641U 22104BF  22314.66667824 -.01154708  00000-0 -22735-1 0  9993,2 53641  53.2174 280.6218 0001324  62.0413 120.1773 15.49270225 11747,6796.996999999999,92.947,419.762,417.962,0.0
53641.0,STARLINK-4588,PAYLOAD,2022-11-10 22:00:00,15.48606054,0.0001526,53.2168,279.4285,60.1931,76.8924,-0.021603,-0.01063553,0.0,0 STARLINK-4588,1 53641U 22104BF  22314.91667824 -.01063553  00000-0 -21603-1 0  9991,2 53641  53.2168 279.4285 0001526  60.1931  76.8924 15.48606054  1306,6798.94,92.987,421.842,419.767,0.0
53641.0,STARLINK-4588,PAYLOAD,2022-11-11 14:00:01,15.47079548,0.0001339,53.2166,276.2531,58.3656,195.5614,-0.026105,-0.01221042,0.0,0 STARLINK-4588,1 53641U 22104BF  22315.58334491 -.01221042  00000-0 -26105-1 0  9997,2 53641  53.2166 276.2531 0001339  58.3656 195.5614 15.47079548 11888,6803.4119999999975,93.079,426.18800000000016,424.366,0.0
53641.0,STARLINK-4588,PAYLOAD,2022-11-11 22:00:00,15.4622232,0.0001249,53.2166,274.66700000000003,53.6989,257.2263,-0.025398,-0.01158822,0.0,0 STARLINK-4588,1 53641U 22104BF  22315.91667824 -.01158822  00000-0 -25398-1 0  9991,2 53641  53.2166 274.6670 0001249  53.6989 257.2263 15.46222320  1300,6805.926,93.13,428.641,426.941,0.0
53641.0,STARLINK-4588,PAYLOAD,2022-11-12 06:00:00,15.45444713,0.0001228,53.2169,273.0858,65.2279,301.6784,-0.027332,-0.01209057,0.0,0 STARLINK-4588,1 53641U 22104BF  22316.25001157 -.01209057  00000-0 -27332-1 0  9997,2 53641  53.2169 273.0858 0001228  65.2279 301.6784 15.45444713 11980,6808.209,93.177,430.91,429.23800000000006,0.0
53641.0,STARLINK-4588,PAYLOAD,2022-11-12 14:00:01,15.4459635,0.0001226,53.2168,271.503,51.9431,10.0039,-0.026969,-0.01163012,0.0,0 STARLINK-4588,1 53641U 22104BF  22316.58334491 -.01163012  00000-0 -26969-1 0  9998,2 53641  53.2168 271.5030 0001226  51.9431  10.0039 15.44596350  1307,6810.701,93.228,433.401,431.731,0.0
53641.0,STARLINK-4588,PAYLOAD,2022-11-12 22:00:00,15.43814529,0.0001466,53.2165,269.9229,59.621,56.3531,-0.028751,-0.01203295,0.0,0 STARLINK-4588,1 53641U 22104BF  22316.91667824 -.01203295  00000-0 -28751-1 0  9993,2 53641  53.2165 269.9229 0001466  59.6210  56.3531 15.43814529 12099,6813.001,93.275,435.864,433.867,0.0
53641.0,STARLINK-4588,PAYLOAD,2022-11-13 14:00:01,15.42169277,0.0001366,53.2169,266.7708,58.8125,162.3257,-0.029789,-0.01181174,0.0,0 STARLINK-4588,1 53641U 22104BF  22317.58334491 -.01181174  00000-0 -29789-1 0  9991,2 53641  53.2169 266.7708 0001366  58.8125 162.3257 15.42169277  1302,6817.845,93.375,440.642,438.779,0.0
53641.0,STARLINK-4588,PAYLOAD,2022-11-13 22:00:00,15.41346406,0.0001351999999999,53.2166,265.1963,62.848,209.405,-0.030225,-0.01167094,0.0,0 STARLINK-4588,1 53641U 22104BF  22317.91667824 -.01167094  00000-0 -30225-1 0  9999,2 53641  53.2166 265.1963 0001352  62.8480 209.4050 15.41346406  1303,6820.272,93.425,443.059,441.215,0.0
53641.0,STARLINK-4588,PAYLOAD,2022-11-14 14:00:01,15.39700162,0.0001279,53.2175,262.0551,50.4229,321.1275,-0.03121,-0.01142998,0.0,0 STARLINK-4588,1 53641U 22104BF  22318.58334491 -.01142998  00000-0 -31210-1 0  9995,2 53641  53.2175 262.0551 0001279  50.4229 321.1275 15.39700162  1305,6825.132,93.525,447.87,446.124,0.0
53641.0,STARLINK-4588,PAYLOAD,2022-11-14 22:00:00,15.3888578,0.0001383,53.2176,260.4872,50.9038,8.8237,-0.032007,-0.01141242,0.0,0 STARLINK-4588,1 53641U 22104BF  22318.91667824 -.01141242  00000-0 -32007-1 0  9997,2 53641  53.2176 260.4872 0001383  50.9038   8.8237 15.38885780  1309,6827.54,93.574,450.349,448.461,0.0
53641.0,STARLINK-4588,PAYLOAD,2022-11-15 00:00:02,15.38680969,0.0001555,53.2176,260.0961,53.5457,108.1375,-0.032158,-0.01139156,0.0,0 STARLINK-4588,1 53641U 22104BF  22319.00002315 -.01139156  00000-0 -32158-1 0  9994,2 53641  53.2176 260.0961 0001555  53.5457 108.1375 15.38680969 12412,6828.146,93.587,451.073,448.949,0.0
53641.0,STARLINK-4588,PAYLOAD,2022-11-15 14:00:01,15.37275419,0.0001514,53.2171,257.3579,56.0365,97.1031,-0.034502,-0.01164713,0.0,0 STARLINK-4588,1 53641U 22104BF  22319.58334491 -.01164713  00000-0 -34502-1 0  9992,2 53641  53.2171 257.3579 0001514  56.0365  97.1031 15.37275419  1303,6832.307,93.672,455.207,453.138,0.0
53641.0,STARLINK-4588,PAYLOAD,2022-11-15 22:00:00,15.36442824,0.0001511,53.2178,255.7957,58.3433,140.0483,-0.034556,-0.01137873,0.0,0 STARLINK-4588,1 53641U 22104BF  22319.91667824 -.01137873  00000-0 -34556-1 0  9994,2 53641  53.2178 255.7957 0001511  58.3433 140.0483 15.36442824 12553,6834.775,93.723,457.673,455.608,0.0
53641.0,STARLINK-4588,PAYLOAD,2022-11-16 14:00:01,15.34816492,0.0001319,53.2176,252.6772,59.6286,226.38,-0.036482,-0.01139659,0.0,0 STARLINK-4588,1 53641U 22104BF  22320.58335648 -.01139659  00000-0 -36482-1 0  9999,2 53641  53.2176 252.6772 0001319  59.6286 226.3800 15.34816492  1304,6839.603,93.822,462.37,460.565,0.0
53641.0,STARLINK-4588,PAYLOAD,2022-11-16 20:00:01,15.34205688,0.0001467,53.2176,251.5097,61.8225,165.946,-0.037132,-0.01137709,0.0,0 STARLINK-4588,1 53641U 22104BF  22320.83334491 -.01137709  00000-0 -37132-1 0  9999,2 53641  53.2176 251.5097 0001467  61.8225 165.9460 15.34205688 12697,6841.418000000002,93.86,464.286,462.279,0.0
53641.0,STARLINK-4588,PAYLOAD,2022-11-16 22:00:08,15.34002849,0.0001302,53.2178,251.1209,57.1087,271.593,-0.037446,-0.01139688,0.0,0 STARLINK-4588,1 53641U 22104BF  22320.91675926 -.01139688  00000-0 -37446-1 0  9995,2 53641  53.2178 251.1209 0001302  57.1087 271.5930 15.34002849  1308,6842.021,93.872,464.777,462.995,0.0
